IRIDIUM 116             
1 43072U 17083C   25074.62651600  .00000317  00000+0  10616-3 0  9996
2 43072  86.4017 153.7060 0001959  98.3300 261.8118 14.34219711378449
IRIDIUM 130             
1 43073U 17083D   25074.59480310  .00000688  00000+0  23848-3 0  9993
2 43073  86.4030 153.9497 0002006  91.8090 268.3336 14.34220427378382
IRIDIUM 151             
1 43074U 17083E   25074.56943166  .00000694  00000+0  24080-3 0  9990
2 43074  86.4022 153.7773 0002105  99.3868 260.7565 14.34221441378405
IRIDIUM 134             
1 43075U 17083F   25074.60748868  .00000269  00000+0  88974-4 0  9999
2 43075  86.4023 153.7632 0002088  90.7401 269.4034 14.34219564378375
IRIDIUM 137             
1 43076U 17083G   25074.62017086  .00000113  00000+0  33236-4 0  9992
2 43076  86.4023 153.8408 0001790 109.5540 250.5849 14.34220602378448
IRIDIUM 141             
1 43077U 17083H   25074.61385079  .00000683  00000+0  23661-3 0  9994
2 43077  86.4019 153.7007 0002536  96.3715 263.7770 14.34223695378448
IRIDIUM 153             
1 43078U 17083J   25074.56601108  .00000717  00000+0  24893-3 0  9999
2 43078  86.3953 122.2253 0002826  93.4995 266.6524 14.34219768379546
IRIDIUM 131             
1 43079U 17083K   25074.60114005  .00000679  00000+0  23524-3 0  9997
2 43079  86.4024 153.8610 0002335 102.6708 257.4749 14.34222638378371
